MANDRAKE 2 BAKER        
1 48908U 21059AF  26132.08795777  .00017382  00000+0  23564-3 0  9993
2 48908  97.7026 321.7930 0004853 117.6933 242.4815 15.57732637271672
PACE-1                  
1 48909U 21059AG  26132.04554073  .00048597  00000+0  33659-3 0  9990
2 48909  97.6811 326.2769 0002870 102.0324 258.1261 15.74362077272107
YAM-3                   
1 48915U 21059AN  26132.06481867  .00007360  00000+0  14393-3 0  9996
2 48915  97.6999 316.6850 0006527 120.6630 239.5264 15.47745586271402
FARADAY_PHOENIX         
1 48924U 21059AX  26132.04346419  .00063149  00000+0  51296-3 0  9997
2 48924  97.6863 326.2990 0005149 113.2479 246.9325 15.70512898271978
DEMO8 (TENZING)         
1 48951U 21059CA  26132.05905720  .00013560  00000+0  21405-3 0  9995
2 48951  97.7048 322.7671 0008246 115.4671 244.7435 15.53610101271694
NAPA-2                  
1 48963U 21059CN  26132.16197539  .00117632  00000+0  50388-3 0  9998
2 48963  97.6790 326.6209 0002143 128.3201 231.8261 15.84799552272082
FENGYUN 3E              
1 49008U 21062A   26132.19304581  .00000280  00000+0  15251-3 0  9993
2 49008  98.7506 136.0025 0001697 149.7275 210.3999 14.19902083251472
ISS (NAUKA)             
1 49044U 21066A   26132.19887557  .00004768  00000+0  94032-4 0  9996
2 49044  51.6311 118.2489 0007482  49.7800 310.3842 15.49191983566325
STARLINK-3100           
1 49144U 21082Q   26132.19017145 -.00000227  00000+0 -11259-4 0  9991
2 49144  69.9987 134.3393 0003869 266.7005  93.3711 14.98330994255499
CUTE                    
1 49263U 21088D   26132.20929563  .00127564  00000+0  73416-3 0  9991
2 49263  97.4191 228.4594 0001553 275.0488  85.0601 15.78351716256859
2021-091B               
1 49316U 21091B   26132.21123802  .00000953  00000+0  49610-4 0  9999
2 49316  97.4486 320.3387 0013716 159.3535 200.8256 15.18362499253526
SDGSAT 1                
1 49387U 21100A   26132.21689727  .00001219  00000+0  60050-4 0  9998
2 49387  97.2665 180.4984 0009687  64.6286 295.5951 15.19737119250450
TEIKYOSAT-4 (OORURI)    
1 49396U 21102B   26132.05795750  .00000943  00000+0  62759-4 0  9997
2 49396  97.3699 162.9446 0013550  61.7806 298.4789 15.09375525247271
Z-SAT                   
1 49399U 21102E   26132.14351204  .00002514  00000+0  12653-3 0  9995
2 49399  97.3360 168.5630 0017209  19.4779 340.7109 15.17986320247974
HIBARI                  
1 49400U 21102F   26132.13172985  .00006803  00000+0  22940-3 0  9999
2 49400  97.3273 178.4613 0010469 336.6501  23.4264 15.30993414248671
KOSEN-1                 
1 49402U 21102H   26132.08982299  .00004373  00000+0  17082-3 0  9993
2 49402  97.3222 174.9567 0012870 342.4423  17.6369 15.26329912248517
GLOBAL-14               
1 49469U 21106A   26132.05906566  .00014421  00000+0  26506-3 0  9996
2 49469  42.0034 145.4880 0014154 136.7072 223.4886 15.48875384252520
GAOFEN-3 02             
1 49495U 21109A   26132.24983674  .00000160  00000+0  61894-4 0  9999
2 49495  98.4105 140.8564 0004000  93.3990 266.7657 14.42212647235131
GLOBAL-12               
1 49772U 21115BA  26132.15191138  .00018090  00000+0  30628-3 0  9991
2 49772  53.1953 217.5241 0002130 323.7770  36.3096 15.51647889250305
GLOBAL-13               
1 49773U 21115BB  26132.16092015  .00010837  00000+0  23667-3 0  9993
2 49773  53.1971 225.6636 0003169  25.2350 334.8812 15.44765055250192
GLOBAL-17               
1 49949U 21120A   26131.64869098  .00018566  00000+0  32133-3 0  9994
2 49949  41.9955 266.6993 0013268 351.5025   8.5593 15.50445261249224
GLOBAL-16               
1 49950U 21120B   26131.74424293  .00016546  00000+0  30710-3 0  9996
2 49950  41.9961 269.2147 0011488 341.9728  18.0706 15.48546391249199
XW-3 (CAS-9)            
1 50466U 21131B   26132.23383831  .00000216  00000+0  80350-4 0  9992
2 50466  98.4953 224.8217 0003805 189.1428 170.9692 14.41321896229934
ION SCV-004             
1 50993U 22002K   26132.13899194  .00003346  00000+0  11738-3 0  9998
2 50993  97.2861 190.4800 0009002 117.6035 242.6121 15.30082021239786
ETV-A1                  
1 51060U 22002CE  26132.15260270  .00007048  00000+0  17912-3 0  9996
2 51060  97.2899 198.5795 0006852 112.4641 247.7332 15.39915332240298
BRO-5                   
1 51061U 22002CF  26132.14155595  .00010526  00000+0  22150-3 0  9994
2 51061  97.3013 205.5456 0006589 102.2488 257.9499 15.45457006240680
LUDI TANCE 1-01A (L-SA*)
1 51284U 22007A   26132.21474017  .00000344  00000+0  42952-4 0  9997
2 51284  97.8092 140.1472 0001615  90.6310 269.5092 14.88412777233121
LUDI TANCE 1-01B (L-SA*)
1 51822U 22018A   26132.18111292  .00000364  00000+0  45151-4 0  9992
2 51822  97.8099 140.1096 0001583  92.7474 267.3924 14.88413528228350
