OBJECT_NAME,OBJECT_ID,EPOCH,MEAN_MOTION,ECCENTRICITY,INCLINATION,RA_OF_ASC_NODE,ARG_OF_PERICENTER,MEAN_ANOMALY,EPHEMERIS_TYPE,CLASSIFICATION_TYPE,NORAD_CAT_ID,ELEMENT_SET_NO,REV_AT_EPOCH,BSTAR,MEAN_MOTION_DOT,MEAN_MOTION_DDOT
MANDRAKE 2 BAKER,2021-059AF,2026-05-12T02:06:39.551328,15.57732637,.0004853,97.7026,321.7930,117.6933,242.4815,0,U,48908,999,27167,.23564E-3,.17382E-3,0
PACE-1,2021-059AG,2026-05-12T01:05:34.719072,15.74362077,.000287,97.6811,326.2769,102.0324,258.1261,0,U,48909,999,27210,.33659E-3,.48597E-3,0
YAM-3,2021-059AN,2026-05-12T01:33:20.333088,15.47745586,.0006527,97.6999,316.6850,120.6630,239.5264,0,U,48915,999,27140,.14393E-3,.736E-4,0
FARADAY_PHOENIX,2021-059AX,2026-05-12T01:02:35.306016,15.70512898,.0005149,97.6863,326.2990,113.2479,246.9325,0,U,48924,999,27197,.51296E-3,.63149E-3,0
DEMO8 (TENZING),2021-059CA,2026-05-12T01:25:02.542080,15.53610101,.0008246,97.7048,322.7671,115.4671,244.7435,0,U,48951,999,27169,.21405E-3,.1356E-3,0
NAPA-2,2021-059CN,2026-05-12T03:53:14.673696,15.84799552,.0002143,97.6790,326.6209,128.3201,231.8261,0,U,48963,999,27208,.50388E-3,.117632E-2,0
FENGYUN 3E,2021-062A,2026-05-12T04:37:59.157984,14.19902083,.0001697,98.7506,136.0025,149.7275,210.3999,0,U,49008,999,25147,.15251E-3,.28E-5,0
ISS (NAUKA),2021-066A,2026-05-12T04:46:22.849248,15.49191983,.0007482,51.6311,118.2489,49.7800,310.3842,0,U,49044,999,56632,.94032E-4,.4768E-4,0
STARLINK-3100,2021-082Q,2026-05-12T04:33:50.813280,14.98330994,.0003869,69.9987,134.3393,266.7005,93.3711,0,U,49144,999,25549,-.11259E-4,-.227E-5,0
CUTE,2021-088D,2026-05-12T05:01:23.142432,15.78351716,.0001553,97.4191,228.4594,275.0488,85.0601,0,U,49263,999,25685,.73416E-3,.127564E-2,0
2021-091B,2021-091B,2026-05-12T05:04:10.964928,15.18362499,.0013716,97.4486,320.3387,159.3535,200.8256,0,U,49316,999,25352,.4961E-4,.953E-5,0
SDGSAT 1,2021-100A,2026-05-12T05:12:19.924128,15.19737119,.0009687,97.2665,180.4984,64.6286,295.5951,0,U,49387,999,25045,.6005E-4,.1219E-4,0
TEIKYOSAT-4 (OORURI),2021-102B,2026-05-12T01:23:27.528000,15.09375525,.001355,97.3699,162.9446,61.7806,298.4789,0,U,49396,999,24727,.62759E-4,.943E-5,0
Z-SAT,2021-102E,2026-05-12T03:26:39.440256,15.17986320,.0017209,97.3360,168.5630,19.4779,340.7109,0,U,49399,999,24797,.12653E-3,.2514E-4,0
HIBARI,2021-102F,2026-05-12T03:09:41.459040,15.30993414,.0010469,97.3273,178.4613,336.6501,23.4264,0,U,49400,999,24867,.2294E-3,.6803E-4,0
KOSEN-1,2021-102H,2026-05-12T02:09:20.706336,15.26329912,.001287,97.3222,174.9567,342.4423,17.6369,0,U,49402,999,24851,.17082E-3,.4373E-4,0
GLOBAL-14,2021-106A,2026-05-12T01:25:03.273024,15.48875384,.0014154,42.0034,145.4880,136.7072,223.4886,0,U,49469,999,25252,.26506E-3,.14421E-3,0
GAOFEN-3 02,2021-109A,2026-05-12T05:59:45.894336,14.42212647,.0004,98.4105,140.8564,93.3990,266.7657,0,U,49495,999,23513,.61894E-4,.16E-5,0
GLOBAL-12,2021-115BA,2026-05-12T03:38:45.143232,15.51647889,.000213,53.1953,217.5241,323.7770,36.3096,0,U,49772,999,25030,.30628E-3,.1809E-3,0
GLOBAL-13,2021-115BB,2026-05-12T03:51:43.500960,15.44765055,.0003169,53.1971,225.6636,25.2350,334.8812,0,U,49773,999,25019,.23667E-3,.10837E-3,0
GLOBAL-17,2021-120A,2026-05-11T15:34:06.900672,15.50445261,.00132683,41.9955,266.6993,351.5025,8.5593,0,U,49949,999,24922,.32132633E-3,.18566E-3,0
GLOBAL-16,2021-120B,2026-05-11T17:51:42.589152,15.48546391,.00114886,41.9961,269.2147,341.9728,18.0706,0,U,49950,999,24919,.30710205E-3,.16546E-3,0
XW-3 (CAS-9),2021-131B,2026-05-12T05:36:43.629984,14.41321896,.0003805,98.4953,224.8217,189.1428,170.9692,0,U,50466,999,22993,.8035E-4,.216E-5,0
ION SCV-004,2022-002K,2026-05-12T03:20:08.903616,15.30082021,.0009002,97.2861,190.4800,117.6035,242.6121,0,U,50993,999,23978,.11738E-3,.3346E-4,0
ETV-A1,2022-002CE,2026-05-12T03:39:44.873280,15.39915332,.0006852,97.2899,198.5795,112.4641,247.7332,0,U,51060,999,24029,.17912E-3,.7048E-4,0
BRO-5,2022-002CF,2026-05-12T03:23:50.434080,15.45457006,.0006589,97.3013,205.5456,102.2488,257.9499,0,U,51061,999,24068,.2215E-3,.10526E-3,0
LUDI TANCE 1-01A (L-SAR 01A),2022-007A,2026-05-12T05:09:13.550688,14.88412777,.0001615,97.8092,140.1472,90.6310,269.5092,0,U,51284,999,23312,.42952E-4,.344E-5,0
LUDI TANCE 1-01B (L-SAR 01B),2022-018A,2026-05-12T04:20:48.156288,14.88413528,.0001583,97.8099,140.1096,92.7474,267.3924,0,U,51822,999,22835,.45151E-4,.364E-5,0
